{
  "type": "FeatureCollection",
  "features": [
    {
      "type": "Feature",
      "properties": {
        "norad_id": 40810,
        "name": "COSMOS 2251 DEB",
        "group": "cosmos-2251-debris",
        "lat": 47.156054942791606,
        "lon": -142.74693754597558,
        "alt_km": 689.3358308289116,
        "timestamp": "2025-12-22T23:36:21.115201+00:00",
        "meta_object_name": "COSMOS 2251 DEB",
        "meta_object_id": "1993-036BWP",
        "meta_epoch": "2025-12-20T21:37:57.745920",
        "meta_mean_motion": 14.58766963,
        "meta_eccentricity": 0.0018123,
        "meta_inclination": 74.0366,
        "meta_ra_of_asc_node": 59.1939,
        "meta_arg_of_pericenter": 210.007,
        "meta_mean_anomaly": 150.0058,
        "meta_ephemeris_type": 0,
        "meta_classification_type": "U",
        "meta_norad_cat_id": 40810,
        "meta_element_set_no": 999,
        "meta_rev_at_epoch": 61802,
        "meta_bstar": 0.00043512,
        "meta_mean_motion_dot": 2.008e-05,
        "meta_mean_motion_ddot": 0,
        "tle_line1": "1 40810U 93036BWP 25354.90136280  .00002008  00000+0  43512-3 0  9999",
        "tle_line2": "2 40810  74.0366  59.1939 0018123 210.0070 150.0058 14.58766963618023"
      },
      "geometry": {
        "type": "Point",
        "coordinates": [
          -142.74693754597558,
          47.156054942791606
        ]
      }
    },
    {
      "type": "Feature",
      "properties": {
        "norad_id": 46271,
        "name": "COSMOS 2251 DEB",
        "group": "cosmos-2251-debris",
        "lat": 71.20711720634289,
        "lon": -178.24868391028676,
        "alt_km": 707.8342749287394,
        "timestamp": "2025-12-22T23:36:21.115211+00:00",
        "meta_object_name": "COSMOS 2251 DEB",
        "meta_object_id": "1993-036BWT",
        "meta_epoch": "2025-12-19T22:21:35.328960",
        "meta_mean_motion": 14.51444335,
        "meta_eccentricity": 0.003987,
        "meta_inclination": 74.0479,
        "meta_ra_of_asc_node": 64.6869,
        "meta_arg_of_pericenter": 184.8218,
        "meta_mean_anomaly": 175.2565,
        "meta_ephemeris_type": 0,
        "meta_classification_type": "U",
        "meta_norad_cat_id": 46271,
        "meta_element_set_no": 999,
        "meta_rev_at_epoch": 84746,
        "meta_bstar": 0.00020357,
        "meta_mean_motion_dot": 7.93e-06,
        "meta_mean_motion_ddot": 0,
        "tle_line1": "1 46271U 93036BWT 25353.93165890  .00000793  00000+0  20357-3 0  9998",
        "tle_line2": "2 46271  74.0479  64.6869 0039870 184.8218 175.2565 14.51444335847465"
      },
      "geometry": {
        "type": "Point",
        "coordinates": [
          -178.24868391028676,
          71.20711720634289
        ]
      }
    },
    {
      "type": "Feature",
      "properties": {
        "norad_id": 46430,
        "name": "COSMOS 2251 DEB",
        "group": "cosmos-2251-debris",
        "lat": 17.367150903775272,
        "lon": 151.74444939414064,
        "alt_km": 724.7879843452602,
        "timestamp": "2025-12-22T23:36:21.115221+00:00",
        "meta_object_name": "COSMOS 2251 DEB",
        "meta_object_id": "1993-036BWU",
        "meta_epoch": "2025-12-19T07:10:40.968192",
        "meta_mean_motion": 14.51392906,
        "meta_eccentricity": 0.0103211,
        "meta_inclination": 73.9139,
        "meta_ra_of_asc_node": 343.9071,
        "meta_arg_of_pericenter": 263.0684,
        "meta_mean_anomaly": 95.8727,
        "meta_ephemeris_type": 0,
        "meta_classification_type": "U",
        "meta_norad_cat_id": 46430,
        "meta_element_set_no": 999,
        "meta_rev_at_epoch": 79778,
        "meta_bstar": 0.0013871,
        "meta_mean_motion_dot": 5.902e-05,
        "meta_mean_motion_ddot": 0,
        "tle_line1": "1 46430U 93036BWU 25353.29908528  .00005902  00000+0  13871-2 0  9996",
        "tle_line2": "2 46430  73.9139 343.9071 0103211 263.0684  95.8727 14.51392906797781"
      },
      "geometry": {
        "type": "Point",
        "coordinates": [
          151.74444939414064,
          17.367150903775272
        ]
      }
    },
    {
      "type": "Feature",
      "properties": {
        "norad_id": 46432,
        "name": "COSMOS 2251 DEB",
        "group": "cosmos-2251-debris",
        "lat": 22.722492051138495,
        "lon": 102.11195375846968,
        "alt_km": 1473.265754842353,
        "timestamp": "2025-12-22T23:36:21.115232+00:00",
        "meta_object_name": "COSMOS 2251 DEB",
        "meta_object_id": "1993-036BWW",
        "meta_epoch": "2025-12-22T01:03:47.474208",
        "meta_mean_motion": 13.36654939,
        "meta_eccentricity": 0.04738658,
        "meta_inclination": 73.8725,
        "meta_ra_of_asc_node": 96.6323,
        "meta_arg_of_pericenter": 212.6525,
        "meta_mean_anomaly": 332.3153,
        "meta_ephemeris_type": 0,
        "meta_classification_type": "U",
        "meta_norad_cat_id": 46432,
        "meta_element_set_no": 999,
        "meta_rev_at_epoch": 67090,
        "meta_bstar": 0.00093620994,
        "meta_mean_motion_dot": 9e-06,
        "meta_mean_motion_ddot": 0,
        "tle_line1": "1 46432U 93036BWW 25356.04429947  .00000900  00000+0  93621-3 0  9992",
        "tle_line2": "2 46432  73.8725  96.6323 0473865 212.6525 332.3153 13.36654939670909"
      },
      "geometry": {
        "type": "Point",
        "coordinates": [
          102.11195375846968,
          22.722492051138495
        ]
      }
    },
    {
      "type": "Feature",
      "properties": {
        "norad_id": 47045,
        "name": "COSMOS 2251 DEB",
        "group": "cosmos-2251-debris",
        "lat": -51.21872862750029,
        "lon": -28.86366823304968,
        "alt_km": 751.0025455578871,
        "timestamp": "2025-12-22T23:36:21.115242+00:00",
        "meta_object_name": "COSMOS 2251 DEB",
        "meta_object_id": "1993-036BWZ",
        "meta_epoch": "2025-12-22T03:19:52.927392",
        "meta_mean_motion": 14.38905079,
        "meta_eccentricity": 0.00303771,
        "meta_inclination": 74.0579,
        "meta_ra_of_asc_node": 131.8525,
        "meta_arg_of_pericenter": 271.3188,
        "meta_mean_anomaly": 268.7855,
        "meta_ephemeris_type": 0,
        "meta_classification_type": "U",
        "meta_norad_cat_id": 47045,
        "meta_element_set_no": 999,
        "meta_rev_at_epoch": 7940,
        "meta_bstar": 8.4130213e-05,
        "meta_mean_motion_dot": 2.34e-06,
        "meta_mean_motion_ddot": 0,
        "tle_line1": "1 47045U 93036BWZ 25356.13880703  .00000234  00000+0  84130-4 0  9990",
        "tle_line2": "2 47045  74.0579 131.8525 0030377 271.3188 268.7855 14.38905079 79406"
      },
      "geometry": {
        "type": "Point",
        "coordinates": [
          -28.86366823304968,
          -51.21872862750029
        ]
      }
    },
    {
      "type": "Feature",
      "properties": {
        "norad_id": 47048,
        "name": "COSMOS 2251 DEB",
        "group": "cosmos-2251-debris",
        "lat": -59.76899846546942,
        "lon": -89.74051889622707,
        "alt_km": 817.5350131043306,
        "timestamp": "2025-12-22T23:36:21.115252+00:00",
        "meta_object_name": "COSMOS 2251 DEB",
        "meta_object_id": "1993-036BXC",
        "meta_epoch": "2025-12-19T13:47:33.177120",
        "meta_mean_motion": 14.52356803,
        "meta_eccentricity": 0.0132576,
        "meta_inclination": 73.9784,
        "meta_ra_of_asc_node": 306.2511,
        "meta_arg_of_pericenter": 132.3729,
        "meta_mean_anomaly": 347.2197,
        "meta_ephemeris_type": 0,
        "meta_classification_type": "U",
        "meta_norad_cat_id": 47048,
        "meta_element_set_no": 999,
        "meta_rev_at_epoch": 59789,
        "meta_bstar": 0.00066595,
        "meta_mean_motion_dot": 3.012e-05,
        "meta_mean_motion_ddot": 0,
        "tle_line1": "1 47048U 93036BXC 25353.57468955  .00003012  00000+0  66595-3 0  9990",
        "tle_line2": "2 47048  73.9784 306.2511 0132576 132.3729 347.2197 14.52356803597890"
      },
      "geometry": {
        "type": "Point",
        "coordinates": [
          -89.74051889622707,
          -59.76899846546942
        ]
      }
    },
    {
      "type": "Feature",
      "properties": {
        "norad_id": 47051,
        "name": "COSMOS 2251 DEB",
        "group": "cosmos-2251-debris",
        "lat": 3.4554735569744603,
        "lon": 167.8381628876096,
        "alt_km": 984.1633327477475,
        "timestamp": "2025-12-22T23:36:21.115262+00:00",
        "meta_object_name": "COSMOS 2251 DEB",
        "meta_object_id": "1993-036BXF",
        "meta_epoch": "2025-12-13T06:55:53.868288",
        "meta_mean_motion": 13.67117141,
        "meta_eccentricity": 0.03401033,
        "meta_inclination": 74.1001,
        "meta_ra_of_asc_node": 182.6908,
        "meta_arg_of_pericenter": 296.1774,
        "meta_mean_anomaly": 246.9893,
        "meta_ephemeris_type": 0,
        "meta_classification_type": "U",
        "meta_norad_cat_id": 47051,
        "meta_element_set_no": 999,
        "meta_rev_at_epoch": 59945,
        "meta_bstar": 0.0019326179,
        "meta_mean_motion_dot": 2.391e-05,
        "meta_mean_motion_ddot": 0,
        "tle_line1": "1 47051U 93036BXF 25347.28881792  .00002391  00000+0  19326-2 0  9991",
        "tle_line2": "2 47051  74.1001 182.6908 0340103 296.1774 246.9893 13.67117141599458"
      },
      "geometry": {
        "type": "Point",
        "coordinates": [
          167.8381628876096,
          3.4554735569744603
        ]
      }
    }
  ]
}